STARLINK-11394 [DTC]    
1 62218U 24231A   26068.57697862  .00239088  00000+0  19115-2 0  9991
2 62218  53.1570 101.8352 0001315  82.4093 277.7074 15.69842240 73395
SILVERSAT               
1 66909U 98067XV  26068.26463686  .00211631  00000+0  15445-2 0  9997
2 66909  51.6252  67.0520 0005527  73.9744 286.1863 15.72057374 15120
